ION SCV-017             
1 63230U 25052W   26068.71648816  .00006457  00000+0  24539-3 0  9998
2 63230  97.4016 324.7516 0023746  44.9875 315.3282 15.26881798 54851
STARLINK-35095          
1 65425U 25192X   26068.72130200  .00018640  00000+0  64002-3 0  9991
2 65425  53.1604 232.5852 0001534  53.4734 306.6408 15.30192772 29385
